[{"OBJECT_NAME":"MESON-1","OBJECT_ID":"2024-043AK","EPOCH":"2026-03-09T21:36:16.481664","MEAN_MOTION":15.29893494,"ECCENTRICITY":0.00095452,"INCLINATION":97.5469,"RA_OF_ASC_NODE":205.2839,"ARG_OF_PERICENTER":227.1432,"MEAN_ANOMALY":132.9007,"EPHEMERIS_TYPE":0,"CLASSIFICATION_TYPE":"U","NORAD_CAT_ID":59131,"ELEMENT_SET_NO":999,"REV_AT_EPOCH":11189,"BSTAR":0.0002974823,"MEAN_MOTION_DOT":8.544e-5,"MEAN_MOTION_DDOT":0},{"OBJECT_NAME":"STARLINK-32189","OBJECT_ID":"2024-133S","EPOCH":"2026-03-09T21:45:11.053152","MEAN_MOTION":15.30197277,"ECCENTRICITY":0.00011563,"INCLINATION":53.1591,"RA_OF_ASC_NODE":296.0444,"ARG_OF_PERICENTER":85.3535,"MEAN_ANOMALY":274.7597,"EPHEMERIS_TYPE":0,"CLASSIFICATION_TYPE":"U","NORAD_CAT_ID":60317,"ELEMENT_SET_NO":999,"REV_AT_EPOCH":9176,"BSTAR":-2.0333749e-5,"MEAN_MOTION_DOT":-9.61e-6,"MEAN_MOTION_DDOT":0}]
