MESON-1                 
1 59131U 24043AK  26068.90019075  .00008544  00000+0  29748-3 0  9998
2 59131  97.5469 205.2839 0009545 227.1432 132.9007 15.29893494111890
STARLINK-32189          
1 60317U 24133S   26068.90637793 -.00000961  00000+0 -20334-4 0  9999
2 60317  53.1591 296.0444 0001156  85.3535 274.7597 15.30197277 91760
